NORAD_CAT_ID,OBJECT_NAME,OBJECT_TYPE,EPOCH,MEAN_MOTION,ECCENTRICITY,INCLINATION,RA_OF_ASC_NODE,ARG_OF_PERICENTER,MEAN_ANOMALY,BSTAR,MEAN_MOTION_DOT,MEAN_MOTION_DDOT,TLE_LINE0,TLE_LINE1,TLE_LINE2,SEMIMAJOR_AXIS,PERIOD,APOGEE,PERIGEE,DECAYED
49150.0,STARLINK-3104,PAYLOAD,2023-04-05 01:33:23,14.9833358,0.0003036,69.9977,111.3584,270.6172,89.464,1.9613e-05,1.41e-06,0.0,0 STARLINK-3104,1 49150U 21082W   23095.06485903  .00000141  00000-0  19613-4 0  9996,2 49150  69.9977 111.3584 0003036 270.6172  89.4640 14.98333580 86962,6950.182,96.107,574.157,569.937,0.0
49150.0,STARLINK-3104,PAYLOAD,2023-04-05 11:10:12,14.98332167,0.0003036,69.9977,110.3484,271.1983,88.8829,-7.685e-06,-1.85e-06,0.0,0 STARLINK-3104,1 49150U 21082W   23095.46541878 -.00000185  00000-0 -76850-5 0  9991,2 49150  69.9977 110.3484 0003036 271.1983  88.8829 14.98332167 87015,6950.186,96.107,574.161,569.941,0.0
49150.0,STARLINK-3104,PAYLOAD,2023-04-05 17:34:44,14.98331966,0.0002988,69.998,109.6757,274.418,85.6637,-2.2558e-05,-3.62e-06,0.0,0 STARLINK-3104,1 49150U 21082W   23095.73245916 -.00000362  00000-0 -22558-4 0  9997,2 49150  69.9980 109.6757 0002988 274.4180  85.6637 14.98331966 87055,6950.187,96.107,574.129,569.975,0.0
49150.0,STARLINK-3104,PAYLOAD,2023-04-06 01:35:24,14.98337535,0.0003008,69.9979,108.8339,272.489,87.5924,5.0667e-07,-8.7e-07,0.0,0 STARLINK-3104,1 49150U 21082W   23096.06625337 -.00000087  00000-0  50667-6 0  9990,2 49150  69.9979 108.8339 0003008 272.4890  87.5924 14.98337535 87115,6950.17,96.107,574.125,569.944,0.0
49150.0,STARLINK-3104,PAYLOAD,2023-04-06 11:12:12,14.98335813,0.000294,69.9982,107.8236,272.9756,87.1067,6.5645e-06,-1.5e-07,0.0,0 STARLINK-3104,1 49150U 21082W   23096.46681253 -.00000015  00000-0  65645-5 0  9995,2 49150  69.9982 107.8236 0002940 272.9756  87.1067 14.98335813 87160,6950.175,96.107,574.083,569.997,0.0
49150.0,STARLINK-3104,PAYLOAD,2023-04-06 17:36:44,14.98333161,0.0002997,69.9982,107.1502,270.986,89.0956,3.7194e-05,3.51e-06,0.0,0 STARLINK-3104,1 49150U 21082W   23096.73385236  .00000351  00000-0  37194-4 0  9996,2 49150  69.9982 107.1502 0002997 270.9860  89.0956 14.98333161 87202,6950.183,96.107,574.131,569.965,0.0
49150.0,STARLINK-3104,PAYLOAD,2023-04-07 01:37:25,14.98330542,0.0003017,69.998,106.3085,271.1128,88.9685,8.4071e-05,9.1e-06,0.0,0 STARLINK-3104,1 49150U 21082W   23097.06765234  .00000910  00000-0  84071-4 0  9990,2 49150  69.9980 106.3085 0003017 271.1128  88.9685 14.98330542 87264,6950.191,96.107,574.153,569.959,0.0
49150.0,STARLINK-3104,PAYLOAD,2023-04-07 09:38:05,14.98330833,0.0003038,69.9981,105.4669,271.0537,89.0274,7.8472e-05,8.43e-06,0.0,0 STARLINK-3104,1 49150U 21082W   23097.40145231  .00000843  00000-0  78472-4 0  9990,2 49150  69.9981 105.4669 0003038 271.0537  89.0274 14.98330833 87303,6950.19,96.107,574.167,569.944,0.0
49150.0,STARLINK-3104,PAYLOAD,2023-04-08 01:39:26,14.98330948,0.0003014,69.9984,103.7835,270.5409,89.5405,1.2727e-05,5.9e-07,0.0,0 STARLINK-3104,1 49150U 21082W   23098.06905363  .00000059  00000-0  12727-4 0  9993,2 49150  69.9984 103.7835 0003014 270.5409  89.5405 14.98330948 87418,6950.19,96.107,574.15,569.96,0.0
49150.0,STARLINK-3104,PAYLOAD,2023-04-08 09:40:06,14.98329534,0.0003051,69.9984,102.9419,270.3679,89.713,-8.9649e-06,-2e-06,0.0,0 STARLINK-3104,1 49150U 21082W   23098.40285476 -.00000200  00000-0 -89649-5 0  9995,2 49150  69.9984 102.9419 0003051 270.3679  89.7130 14.98329534 87455,6950.194,96.107,574.18,569.939,0.0
49150.0,STARLINK-3104,PAYLOAD,2023-04-09 08:05:59,14.98330949,0.0003114,69.9984,100.5849,270.1634,89.9168,2.8197e-05,2.43e-06,0.0,0 STARLINK-3104,1 49150U 21082W   23099.33749267  .00000243  00000-0  28197-4 0  9996,2 49150  69.9984 100.5849 0003114 270.1634  89.9168 14.98330949 87607,6950.19,96.107,574.219,569.891,0.0
49150.0,STARLINK-3104,PAYLOAD,2023-04-09 09:42:07,14.98330589,0.0003115,69.9983,100.4166,270.171,89.9092,2.3061e-05,1.82e-06,0.0,0 STARLINK-3104,1 49150U 21082W   23099.40425287  .00000182  00000-0  23061-4 0  9994,2 49150  69.9983 100.4166 0003115 270.1710  89.9092 14.98330589 87609,6950.191,96.107,574.221,569.891,0.0
49150.0,STARLINK-3104,PAYLOAD,2023-04-10 09:44:08,14.98332814,0.0003143,69.9983,97.8914,269.7202,90.3597,8.7926e-05,9.56e-06,0.0,0 STARLINK-3104,1 49150U 21082W   23100.40564998  .00000956  00000-0  87926-4 0  9999,2 49150  69.9983  97.8914 0003143 269.7202  90.3597 14.98332814 87766,6950.184,96.107,574.234,569.865,0.0
49150.0,STARLINK-3104,PAYLOAD,2023-04-11 09:46:08,14.98333887,0.0003072,69.9986,95.3666,269.1249,90.9558,7.2446e-05,7.72e-06,0.0,0 STARLINK-3104,1 49150U 21082W   23101.40704836  .00000772  00000-0  72446-4 0  9994,2 49150  69.9986  95.3666 0003072 269.1249  90.9558 14.98333887 87902,6950.181,96.107,574.181,569.911,0.0
49150.0,STARLINK-3104,PAYLOAD,2023-04-12 03:23:38,14.98329744,0.0002982,69.9988,93.515,268.7267,91.3551,1.3929e-06,-7.6e-07,0.0,0 STARLINK-3104,1 49150U 21082W   23102.14141216 -.00000076  00000-0  13929-5 0  9993,2 49150  69.9988  93.5150 0002982 268.7267  91.3551 14.98329744 88025,6950.194,96.107,574.131,569.986,0.0
49150.0,STARLINK-3104,PAYLOAD,2023-04-12 08:12:02,14.98329791,0.0002971,69.9989,93.0101,268.6859,91.3959,1.5181e-06,-7.5e-07,0.0,0 STARLINK-3104,1 49150U 21082W   23102.34169210 -.00000075  00000-0  15181-5 0  9990,2 49150  69.9989  93.0101 0002971 268.6859  91.3959 14.98329791 88047,6950.194,96.107,574.123,569.994,0.0
49150.0,STARLINK-3104,PAYLOAD,2023-04-13 09:50:14,14.98294981,0.0002812,69.9991,90.3172,271.5977,88.486,-0.00034364,-4.187e-05,0.0,0 STARLINK-3104,1 49150U 21082W   23103.40989027 -.00004187  00000-0 -34364-3 0  9995,2 49150  69.9991  90.3172 0002812 271.5977  88.4860 14.98294981 88204,6950.301,96.109,574.121,570.212,0.0
49150.0,STARLINK-3104,PAYLOAD,2023-04-13 16:14:44,14.98319223,0.0004091,69.9996,89.6449,266.4334,93.6357,-3.1884e-05,-4.73e-06,0.0,0 STARLINK-3104,1 49150U 21082W   23103.67690578 -.00000473  00000-0 -31884-4 0  9993,2 49150  69.9996  89.6449 0004091 266.4334  93.6357 14.98319223 88259,6950.226,96.108,574.935,569.248,0.0
49150.0,STARLINK-3104,PAYLOAD,2023-04-14 01:51:32,14.98328225,0.0002517,70.0005,88.6357,269.1846,90.9025,0.0001426,1.609e-05,0.0,0 STARLINK-3104,1 49150U 21082W   23104.07746333  .00001609  00000-0  14260-3 0  9997,2 49150  70.0005  88.6357 0002517 269.1846  90.9025 14.98328225 88310,6950.198,96.107,573.813,570.314,0.0
49150.0,STARLINK-3104,PAYLOAD,2023-04-14 08:16:04,14.98331536,0.0002797,69.9989,87.9599,274.4329,85.651,0.00013817,1.556e-05,0.0,0 STARLINK-3104,1 49150U 21082W   23104.34450196  .00001556  00000-0  13817-3 0  9994,2 49150  69.9989  87.9599 0002797 274.4329  85.6510 14.98331536 88345,6950.188,96.107,573.997,570.109,0.0
49150.0,STARLINK-3104,PAYLOAD,2023-04-14 16:16:44,14.98337975,0.000279,69.9989,87.1182,274.6954,85.3887,0.0001908,2.185e-05,0.0,0 STARLINK-3104,1 49150U 21082W   23104.67829673  .00002185  00000-0  19080-3 0  9997,2 49150  69.9989  87.1182 0002790 274.6954  85.3887 14.98337975 88408,6950.168,96.106,573.972,570.094,0.0
49150.0,STARLINK-3104,PAYLOAD,2023-04-15 01:53:30,14.9836609,0.0002486,69.9994,86.1091,258.2354,101.8527,0.00062093,7.33e-05,0.0,0 STARLINK-3104,1 49150U 21082W   23105.07882654  .00007330  00000-0  62093-3 0  9999,2 49150  69.9994  86.1091 0002486 258.2354 101.8527 14.98366090 88467,6950.081,96.105,573.674,570.218,0.0
49150.0,STARLINK-3104,PAYLOAD,2023-04-15 08:18:02,14.98361249,0.0002672,69.9991,85.4351,274.6578,85.4276,0.00087354,0.00010354,0.0,0 STARLINK-3104,1 49150U 21082W   23105.34586017  .00010354  00000-0  87354-3 0  9990,2 49150  69.9991  85.4351 0002672 274.6578  85.4276 14.98361249 88494,6950.096,96.105,573.818,570.104,0.0
49150.0,STARLINK-3104,PAYLOAD,2023-04-15 16:18:45,14.98328055,0.0002197,69.9992,84.5951,272.6435,87.4472,0.00043711,5.126e-05,0.0,0 STARLINK-3104,1 49150U 21082W   23105.67969074  .00005126  00000-0  43711-3 0  9994,2 49150  69.9992  84.5951 0002197 272.6435  87.4472 14.98328055 88558,6950.199,96.107,573.591,570.537,0.0
49150.0,STARLINK-3104,PAYLOAD,2023-04-15 21:07:09,14.983401,0.000213,69.9986,84.0869,269.7233,90.3682,0.0001629,1.852e-05,0.0,0 STARLINK-3104,1 49150U 21082W   23105.87996808  .00001852  00000-0  16290-3 0  9995,2 49150  69.9986  84.0869 0002130 269.7233  90.3682 14.98340100 88577,6950.162,96.106,573.507,570.546,0.0
49150.0,STARLINK-3104,PAYLOAD,2023-04-16 01:55:34,14.98324474,0.0002752,69.9994,83.5833,269.434,90.6503,-0.00014929,-1.874e-05,0.0,0 STARLINK-3104,1 49150U 21082W   23106.08026383 -.00001874  00000-0 -14929-3 0  9994,2 49150  69.9994  83.5833 0002752 269.4340  90.6503 14.98324474 88613,6950.21,96.107,573.988,570.162,0.0
49150.0,STARLINK-3104,PAYLOAD,2023-04-16 08:20:06,14.98330338,0.0002675,69.999,82.9095,267.9945,92.0907,-0.00011444,-1.458e-05,0.0,0 STARLINK-3104,1 49150U 21082W   23106.34729954 -.00001458  00000-0 -11444-3 0  9994,2 49150  69.9990  82.9095 0002675 267.9945  92.0907 14.98330338 88654,6950.192,96.107,573.916,570.198,0.0
49150.0,STARLINK-3104,PAYLOAD,2023-04-17 03:33:42,14.98339975,0.000247,69.9992,80.8896,267.6729,92.4147,-9.7949e-05,-1.262e-05,0.0,0 STARLINK-3104,1 49150U 21082W   23107.14841044 -.00001262  00000-0 -97949-4 0  9996,2 49150  69.9992  80.8896 0002470 267.6729  92.4147 14.98339975 88771,6950.162,96.106,573.744,570.31,0.0
49150.0,STARLINK-3104,PAYLOAD,2023-04-17 08:22:05,14.98343502,0.0002605,70.0004,80.3849,263.6738,96.4125,-0.00031654,-3.869e-05,0.0,0 STARLINK-3104,1 49150U 21082W   23107.34868026 -.00003869  00000-0 -31654-3 0  9992,2 49150  70.0004  80.3849 0002605 263.6738  96.4125 14.98343502 88802,6950.151,96.106,573.827,570.206,0.0
49150.0,STARLINK-3104,PAYLOAD,2023-04-17 21:11:11,14.98332592,0.0002274,70.0005,79.0387,259.9548,100.1355,0.00015703,1.781e-05,0.0,0 STARLINK-3104,1 49150U 21082W   23107.88276766  .00001781  00000-0  15703-3 0  9991,2 49150  70.0005  79.0387 0002274 259.9548 100.1355 14.98332592 88876,6950.185,96.107,573.63,570.469,0.0
